     2.100          NAVIGATION                              RINEX VERSION / TYPE
fic2rin                                 07/29/2011 02:25:07 PGM / RUN BY / DATE
                                                            END OF HEADER
31 11  7 28 22  0  0.0  .118012540042D-03  .579802872380D-11  .000000000000D+00
     .610000000000D+02  .515000000000D+02  .434196657462D-08  .350537617345D+00
     .264868140221D-05  .760243623517D-02  .938773155212D-06  .515370310593D+04
     .424800000000D+06 -.260770320892D-07  .115506830176D+01 -.689178705215D-07
     .979819462648D+00  .366156250000D+03 -.952606493141D+00 -.840856453618D-08
     .261082303697D-09  .100000000000D+01  .164600000000D+04  .000000000000D+00
     .240000000000D+01  .000000000000D+00 -.130385160446D-07  .610000000000D+02
     .417606000000D+06  .400000000000D+01
20 11  7 28 21 59 44.0  .511449761689D-04  .341060513165D-12  .000000000000D+00
     .130000000000D+02 -.170937500000D+02  .518771608920D-08 -.130953074707D+01
    -.990927219391D-06  .448393065017D-02  .824593007565D-05  .515361957169D+04
     .424784000000D+06  .409781932831D-07 -.989323704938D+00  .186264514923D-06
     .932364429224D+00  .205312500000D+03  .128342213150D+01 -.828963101069D-08
    -.712529679721D-09  .100000000000D+01  .164600000000D+04  .000000000000D+00
     .240000000000D+01  .000000000000D+00 -.745058059692D-08  .130000000000D+02
     .423816000000D+06  .400000000000D+01
20 11  7 28 23 59 44.0  .511477701366D-04  .341060513165D-12  .000000000000D+00
     .140000000000D+02 -.246562500000D+02  .533093634061D-08 -.259427882510D+00
    -.126287341118D-05  .448308896739D-02  .821426510811D-05  .515361773682D+04
     .431984000000D+06 -.614672899246D-07 -.989384331189D+00  .558793544769D-07
     .932358905245D+00  .204375000000D+03  .128353913130D+01 -.842463663422D-08
    -.677885379504D-09  .100000000000D+01  .164600000000D+04  .000000000000D+00
     .240000000000D+01  .000000000000D+00 -.745058059692D-08  .140000000000D+02
     .424806000000D+06  .400000000000D+01
 1 11  7 29  0  0  0.0 -.905385240912D-05  .125055521494D-11  .000000000000D+00
     .740000000000D+02  .148437500000D+02  .489234664302D-08 -.313459205662D+01
     .787898898125D-06  .250222161412D-03  .537931919098D-05  .518035202980D+04
     .432000000000D+06 -.167638063431D-07 -.200802504610D+01  .242143869400D-07
     .959996406264D+00  .271625000000D+03  .248823600141D+01 -.787889961637D-08
     .194293807403D-09  .100000000000D+01  .164600000000D+04  .000000000000D+00
     .240000000000D+01  .630000000000D+02  .791624188423D-08  .740000000000D+02
     .424806000000D+06  .400000000000D+01
 2 11  7 29  0  0  0.0  .348791480064D-03  .181898940355D-11  .000000000000D+00
     .660000000000D+02  .144687500000D+02  .544058376501D-08  .289487286394D+01
     .648200511932D-06  .103727022652D-01  .540539622307D-05  .515377941322D+04
     .432000000000D+06 -.163912773132D-06 -.201477919843D+01 -.316649675369D-07
     .938631991596D+00  .264781250000D+03 -.295695883805D+01 -.824820071352D-08
     .146791828755D-09  .100000000000D+01  .164600000000D+04  .000000000000D+00
     .240000000000D+01  .000000000000D+00 -.172294676304D-07  .660000000000D+02
     .424806000000D+06  .400000000000D+01
 3 11  7 29  0  0  0.0  .747778918594D-03  .488853402203D-11  .000000000000D+00
     .480000000000D+02 -.721875000000D+02  .499306512406D-08  .306726668822D+01
    -.384822487831D-05  .145623795688D-01  .113490968943D-04  .515367144966D+04
     .432000000000D+06  .154599547386D-06  .310974555898D+01 -.245869159698D-06
     .929653570340D+00  .143000000000D+03  .111107998042D+01 -.785354141724D-08
     .384301721995D-09  .100000000000D+01  .164600000000D+04  .000000000000D+00
     .240000000000D+01  .000000000000D+00 -.465661287308D-08  .480000000000D+02
     .424806000000D+06  .400000000000D+01
 4 11  7 29  0  0  0.0  .185534823686D-03  .109139364213D-10  .000000000000D+00
     .380000000000D+02  .140625000000D+02  .564916388178D-08 -.157687320950D+00
     .834465026855D-06  .962919322774D-02  .488013029099D-05  .515366918373D+04
     .432000000000D+06 -.260770320892D-07 -.199748717904D+01  .894069671631D-07
     .937705218363D+00  .270468750000D+03  .740206850872D+00 -.868143304510D-08
     .860750139413D-10  .100000000000D+01  .164600000000D+04  .000000000000D+00
     .240000000000D+01  .000000000000D+00 -.651925802231D-08  .380000000000D+02
     .424806000000D+06  .400000000000D+01
 5 11  7 29  0  0  0.0 -.196010805666D-03 -.545696821064D-11  .000000000000D+00
     .690000000000D+02 -.668750000000D+01  .469233831187D-08 -.134577805495D+01
    -.333413481712D-06  .227201846428D-02  .882335007191D-05  .515371403313D+04
     .432000000000D+06  .186264514923D-07 -.952297023062D+00 -.465661287308D-07
     .953359575573D+00  .207687500000D+03  .160259120693D+00 -.794104506212D-08
    -.692171688872D-09  .100000000000D+01  .164600000000D+04  .000000000000D+00
     .240000000000D+01  .000000000000D+00 -.102445483208D-07  .690000000000D+02
     .424806000000D+06  .400000000000D+01
 6 11  7 29  0  0  0.0 -.112266279757D-03  .111413100967D-10  .000000000000D+00
     .400000000000D+02 -.540000000000D+02  .497056418681D-08 -.120935733943D+01
    -.294856727123D-05  .675536249764D-02  .114459544420D-04  .515363947105D+04
     .432000000000D+06 -.223517417908D-07 -.309932990703D+01 -.104308128357D-06
     .936732020889D+00  .149031250000D+03 -.726345545539D+00 -.813891044686D-08
     .515378610445D-09  .100000000000D+01  .164600000000D+04  .000000000000D+00
     .965000000000D+01  .000000000000D+00 -.465661287308D-08  .400000000000D+02
     .424806000000D+06  .400000000000D+01
 7 11  7 29  0  0  0.0  .197421759367D-04  .159161572810D-11  .000000000000D+00
     .101000000000D+03  .533437500000D+02  .432839458072D-08  .141665452825D+01
     .277161598206D-05  .476361124311D-02  .105425715446D-05  .515364888954D+04
     .432000000000D+06  .186264514923D-08  .115346611241D+01  .726431608200D-07
     .974688682713D+00  .365750000000D+03 -.311893763504D+01 -.829534553444D-08
     .156077929844D-09  .100000000000D+01  .164600000000D+04  .000000000000D+00
     .340000000000D+01  .000000000000D+00 -.107102096081D-07  .101000000000D+03
     .424806000000D+06  .400000000000D+01
 8 11  7 29  0  0  0.0  .863801687956D-05  .113686837722D-12  .000000000000D+00
     .570000000000D+02  .354687500000D+02  .387051836548D-08  .918492612824D+00
     .188499689102D-05  .118252034299D-01  .832602381706D-06  .515357845116D+04
     .432000000000D+06  .819563865662D-07  .123032538084D+01  .230967998505D-06
     .996426930004D+00  .380562500000D+03 -.306388333906D+01 -.810426614664D-08
     .935753263594D-10  .100000000000D+01  .164600000000D+04  .000000000000D+00
     .240000000000D+01  .000000000000D+00 -.419095158577D-08  .570000000000D+02
     .424806000000D+06  .400000000000D+01
 9 11  7 29  0  0  0.0  .956892035902D-04  .238742359215D-11  .000000000000D+00
     .480000000000D+02  .520937500000D+02  .431732269096D-08  .693062759223D+00
     .251270830631D-05  .174108009087D-01  .129453837872D-05  .515366023445D+04
     .432000000000D+06 -.201165676117D-06  .112547289116D+01 -.139698386192D-06
     .983585582859D+00  .367812500000D+03  .159001916398D+01 -.860607276319D-08
     .155720772109D-09  .100000000000D+01  .164600000000D+04  .000000000000D+00
     .240000000000D+01  .000000000000D+00 -.558793544769D-08  .480000000000D+02
     .424806000000D+06  .400000000000D+01
10 11  7 29  0  0  0.0 -.823615118861D-05 -.113686837722D-11  .000000000000D+00
     .560000000000D+02 -.111875000000D+02  .478091342995D-08 -.113248711814D+01
    -.635161995888D-06  .102543001994D-01  .877678394318D-05  .515362100410D+04
     .432000000000D+06  .305473804474D-06 -.928961566201D+00  .100582838058D-06
     .948312310706D+00  .204312500000D+03  .705230542311D+00 -.802997733793D-08
    -.734673459241D-09  .100000000000D+01  .164600000000D+04  .000000000000D+00
     .240000000000D+01  .000000000000D+00 -.232830643654D-08  .560000000000D+02
     .424806000000D+06  .400000000000D+01
11 11  7 29  0  0  0.0 -.172100029886D-03 -.329691829393D-11  .000000000000D+00
     .650000000000D+02  .306875000000D+02  .670277919766D-08  .156855477057D+01
     .154413282871D-05  .119783845730D-01  .651925802231D-05  .515366348076D+04
     .432000000000D+06 -.379979610443D-06 -.225535745024D+01  .111758708954D-07
     .887855851789D+00  .218031250000D+03  .947346754052D+00 -.910752222200D-08
     .443232748137D-09  .100000000000D+01  .164600000000D+04  .000000000000D+00
     .240000000000D+01  .000000000000D+00 -.116415321827D-07  .650000000000D+02
     .424806000000D+06  .400000000000D+01
12 11  7 29  0  0  0.0  .122198835015D-04  .250111042988D-11  .000000000000D+00
     .103000000000D+03 -.140687500000D+03  .421410410578D-08  .120938645297D+01
    -.742077827454D-05  .365480815526D-02  .616349279881D-05  .515370594406D+04
     .432000000000D+06  .502914190292D-07  .220914223989D+01  .782310962677D-07
     .975967324317D+00  .272406250000D+03 -.970285711837D-01 -.801676250177D-08
    -.233224000430D-09  .100000000000D+01  .164600000000D+04  .000000000000D+00
     .240000000000D+01  .000000000000D+00 -.121071934700D-07  .103000000000D+03
     .424806000000D+06  .400000000000D+01
13 11  7 29  0  0  0.0  .258977059275D-03 -.170530256582D-11  .000000000000D+00
     .700000000000D+02  .117343750000D+03  .345764402475D-08 -.241624302757D+01
     .612810254097D-05  .471005775034D-02  .941194593906D-05  .515357723236D+04
     .432000000000D+06  .633299350739D-07  .179563521416D+00  .484287738800D-07
     .989454415205D+00  .213812500000D+03  .190848673654D+01 -.748709758195D-08
     .321441960776D-10  .100000000000D+01  .164600000000D+04  .000000000000D+00
     .340000000000D+01  .000000000000D+00 -.111758708954D-07  .700000000000D+02
     .424806000000D+06  .400000000000D+01
